NORAD_CAT_ID,OBJECT_NAME,OBJECT_TYPE,EPOCH,MEAN_MOTION,ECCENTRICITY,INCLINATION,RA_OF_ASC_NODE,ARG_OF_PERICENTER,MEAN_ANOMALY,BSTAR,MEAN_MOTION_DOT,MEAN_MOTION_DDOT,TLE_LINE0,TLE_LINE1,TLE_LINE2,SEMIMAJOR_AXIS,PERIOD,APOGEE,PERIGEE,DECAYED
52676.0,STARLINK-4006,PAYLOAD,2024-02-23 13:42:47,15.08841413,0.0001464,53.2167,259.0844,89.355,270.761,1.1592e-05,-1.03e-06,0.0,0 STARLINK-4006,1 52676U 22053W   24054.57138266 -.00000103  00000-0  11592-4 0  9998,2 52676  53.2167 259.0844 0001464  89.3550 270.7610 15.08841413 98554,6917.876,95.437,540.754,538.728,0.0
52676.0,STARLINK-4006,PAYLOAD,2024-02-23 20:04:19,15.08841431,0.0001377,53.2159,257.8952,90.1118,270.0032,5.9334e-05,6.57e-06,0.0,0 STARLINK-4006,1 52676U 22053W   24054.83634096  .00000657  00000-0  59334-4 0  9998,2 52676  53.2159 257.8952 0001377  90.1118 270.0032 15.08841431 98599,6917.876,95.437,540.694,538.788,0.0
52676.0,STARLINK-4006,PAYLOAD,2024-02-24 19:55:06,15.08841703,0.000141,53.2161,253.4342,91.0912,269.0242,6.8542e-05,8.03e-06,0.0,0 STARLINK-4006,1 52676U 22053W   24055.82994068  .00000803  00000-0  68542-4 0  9990,2 52676  53.2161 253.4342 0001410  91.0912 269.0242 15.08841703 98310,6917.875,95.437,540.716,538.765,0.0
52676.0,STARLINK-4006,PAYLOAD,2024-02-25 13:24:21,15.08841494,0.0001512,53.2138,250.1626,91.9715,268.145,5.0037e-05,5.08e-06,0.0,0 STARLINK-4006,1 52676U 22053W   24056.55858060  .00000508  00000-0  50037-4 0  9994,2 52676  53.2138 250.1626 0001512  91.9715 268.1450 15.08841494 98853,6917.876,95.437,540.787,538.695,0.0
52676.0,STARLINK-4006,PAYLOAD,2024-02-25 19:45:53,15.08846532,0.0001315,53.216,248.9743,91.4277,268.6866,9.727e-05,1.261e-05,0.0,0 STARLINK-4006,1 52676U 22053W   24056.82353575  .00001261  00000-0  97270-4 0  9992,2 52676  53.2160 248.9743 0001315  91.4277 268.6866 15.08846532 98890,6917.86,95.437,540.635,538.816,0.0
52676.0,STARLINK-4006,PAYLOAD,2024-02-26 18:01:18,15.08850887,9.44e-05,53.2174,244.8131,96.8756,263.2343,-0.00026032,-4.43e-05,0.0,0 STARLINK-4006,1 52676U 22053W   24057.75090715 -.00004430  00000-0 -26032-3 0  9999,2 52676  53.2174 244.8131 0000944  96.8756 263.2343 15.08850887 98607,6917.847,95.437,540.365,539.059,0.0
52676.0,STARLINK-4006,PAYLOAD,2024-02-26 22:47:28,15.08831802,0.0001586,53.2166,243.9191,92.1018,268.0156,-2.8574e-06,-3.33e-06,0.0,0 STARLINK-4006,1 52676U 22053W   24057.94963153 -.00000333  00000-0 -28574-5 0  9998,2 52676  53.2166 243.9191 0001586  92.1018 268.0156 15.08831802 98631,6917.905,95.438,540.868,538.673,0.0
52676.0,STARLINK-4006,PAYLOAD,2024-02-27 19:27:28,15.08844164,0.0001305,53.2168,240.0534,89.5583,270.5559,4.6111e-05,4.46e-06,0.0,0 STARLINK-4006,1 52676U 22053W   24058.81074422  .00000446  00000-0  46111-4 0  9996,2 52676  53.2168 240.0534 0001305  89.5583 270.5559 15.08844164 98762,6917.868,95.437,540.635,538.83,0.0
52676.0,STARLINK-4006,PAYLOAD,2024-02-28 11:21:20,15.08828014,0.0001263,53.2154,237.0732,103.5684,256.5449,0.00014302,1.988e-05,0.0,0 STARLINK-4006,1 52676U 22053W   24059.47315235  .00001988  00000-0  14302-3 0  9997,2 52676  53.2154 237.0732 0001263 103.5684 256.5449 15.08828014 98864,6917.917,95.438,540.656,538.908,0.0
52676.0,STARLINK-4006,PAYLOAD,2024-02-28 19:18:15,15.08837344,0.0001452,53.2167,235.5945,71.8706,288.2444,9.5814e-05,1.237e-05,0.0,0 STARLINK-4006,1 52676U 22053W   24059.80435031  .00001237  00000-0  95814-4 0  9996,2 52676  53.2167 235.5945 0001452  71.8706 288.2444 15.08837344 99346,6917.889,95.438,540.758,538.749,0.0
52676.0,STARLINK-4006,PAYLOAD,2024-02-29 04:50:34,15.08839403,0.0001465,53.2164,233.8101,75.8414,284.2741,8.8393e-05,1.119e-05,0.0,0 STARLINK-4006,1 52676U 22053W   24060.20179012  .00001119  00000-0  88393-4 0  9999,2 52676  53.2164 233.8101 0001465  75.8414 284.2741 15.08839403 99403,6917.882,95.438,540.761,538.734,0.0
52676.0,STARLINK-4006,PAYLOAD,2024-02-29 20:44:25,15.08844686,0.0001221,53.2159,230.8337,93.4904,266.6228,2.4291e-05,9.9e-07,0.0,0 STARLINK-4006,1 52676U 22053W   24060.86418776  .00000099  00000-0  24291-4 0  9997,2 52676  53.2159 230.8337 0001221  93.4904 266.6228 15.08844686 99509,6917.866,95.437,540.576,538.886,0.0
52676.0,STARLINK-4006,PAYLOAD,2024-03-01 04:41:21,15.08842289,0.0001293,53.216,229.3466,85.7159,274.398,2.1493e-05,5.4e-07,0.0,0 STARLINK-4006,1 52676U 22053W   24061.19538977  .00000054  00000-0  21493-4 0  9992,2 52676  53.2160 229.3466 0001293  85.7159 274.3980 15.08842289 99555,6917.873,95.437,540.633,538.844,0.0
52676.0,STARLINK-4006,PAYLOAD,2024-03-01 17:24:26,15.08844294,0.0001271,53.2158,226.9671,94.758,265.3557,6.2873e-05,7.13e-06,0.0,0 STARLINK-4006,1 52676U 22053W   24061.72530661  .00000713  00000-0  62873-4 0  9992,2 52676  53.2158 226.9671 0001271  94.7580 265.3557 15.08844294 99634,6917.867,95.437,540.612,538.853,0.0
52676.0,STARLINK-4006,PAYLOAD,2024-03-02 14:04:27,15.08840907,0.0001275,53.2161,223.1002,97.4165,262.6972,9.2059e-05,1.178e-05,0.0,0 STARLINK-4006,1 52676U 22053W   24062.58642764  .00001178  00000-0  92059-4 0  9990,2 52676  53.2161 223.1002 0001275  97.4165 262.6972 15.08840907 99760,6917.878,95.437,540.625,538.861,0.0
52676.0,STARLINK-4006,PAYLOAD,2024-03-02 17:15:13,15.08842401,0.0001278,53.2162,222.5053,98.19,261.9238,0.00010094,1.319e-05,0.0,0 STARLINK-4006,1 52676U 22053W   24062.71890644  .00001319  00000-0  10094-3 0  9992,2 52676  53.2162 222.5053 0001278  98.1900 261.9238 15.08842401 99351,6917.873,95.437,540.622,538.854,0.0
52676.0,STARLINK-4006,PAYLOAD,2024-03-03 10:44:28,15.08839881,0.0001383,53.2166,219.2351,99.1932,260.9217,1.4497e-05,-5.7e-07,0.0,0 STARLINK-4006,1 52676U 22053W   24063.44755082 -.00000057  00000-0  14497-4 0  9990,2 52676  53.2166 219.2351 0001383  99.1932 260.9217 15.08839881 99468,6917.881,95.438,540.702,538.789,0.0
52676.0,STARLINK-4006,PAYLOAD,2024-03-03 13:55:14,15.08840886,0.0001385,53.2166,218.6405,99.0461,261.0687,1.9597e-05,2.4e-07,0.0,0 STARLINK-4006,1 52676U 22053W   24063.58002968  .00000024  00000-0  19597-4 0  9992,2 52676  53.2166 218.6405 0001385  99.0461 261.0687 15.08840886 99919,6917.878,95.437,540.701,538.785,0.0
52676.0,STARLINK-4006,PAYLOAD,2024-03-03 17:05:59,15.08856178,0.0001265,53.2167,218.0453,89.2216,270.8921,0.00016807,2.389e-05,0.0,0 STARLINK-4006,1 52676U 22053W   24063.71249522  .00002389  00000-0  16807-3 0  9992,2 52676  53.2167 218.0453 0001265  89.2216 270.8921 15.08856178 99508,6917.831,95.437,540.571,538.821,0.0
52676.0,STARLINK-4006,PAYLOAD,2024-03-04 13:46:00,15.08845457,0.0001288,53.2168,214.1833,90.2779,269.8361,5.8682e-05,6.46e-06,0.0,0 STARLINK-4006,1 52676U 22053W   24064.57362195  .00000646  00000-0  58682-4 0  9991,2 52676  53.2168 214.1833 0001288  90.2779 269.8361 15.08845457100067,6917.864,95.437,540.62,538.838,0.0
52676.0,STARLINK-4006,PAYLOAD,2024-03-04 16:56:47,15.08846231,0.0001273,53.217,213.588,88.0648,272.049,5.0938e-05,5.23e-06,0.0,0 STARLINK-4006,1 52676U 22053W   24064.70610098  .00000523  00000-0  50938-4 0  9994,2 52676  53.2170 213.5880 0001273  88.0648 272.0490 15.08846231 99651,6917.861,95.437,540.607,538.846,0.0
52676.0,STARLINK-4006,PAYLOAD,2024-03-05 13:36:49,15.08825403,0.0001288,53.217,209.7226,84.8424,275.2715,-5.4349e-05,-1.152e-05,0.0,0 STARLINK-4006,1 52676U 22053W   24065.56724265 -.00001152  00000-0 -54349-4 0  9992,2 52676  53.2170 209.7226 0001288  84.8424 275.2715 15.08825403100212,6917.925,95.438,540.681,538.899,0.0
52676.0,STARLINK-4006,PAYLOAD,2024-03-05 16:47:35,15.08824687,0.000136,53.2167,209.1282,87.5546,272.5602,-6.0056e-05,-1.243e-05,0.0,0 STARLINK-4006,1 52676U 22053W   24065.69972176 -.00001243  00000-0 -60056-4 0  9995,2 52676  53.2167 209.1282 0001360  87.5546 272.5602 15.08824687 99800,6917.927,95.439,540.733,538.851,0.0
52676.0,STARLINK-4006,PAYLOAD,2024-03-06 13:27:36,15.08840208,0.0001503,53.2185,205.2631,83.5662,276.5502,3.6715e-05,2.96e-06,0.0,0 STARLINK-4006,1 52676U 22053W   24066.56083507  .00000296  00000-0  36715-4 0  9993,2 52676  53.2185 205.2631 0001503  83.5662 276.5502 15.08840208100363,6917.88,95.438,540.785,538.705,0.0
52676.0,STARLINK-4006,PAYLOAD,2024-03-06 16:38:22,15.0884516,0.0001432,53.2171,204.6662,68.3104,291.804,7.257e-05,8.67e-06,0.0,0 STARLINK-4006,1 52676U 22053W   24066.69331140  .00000867  00000-0  72570-4 0  9999,2 52676  53.2171 204.6662 0001432  68.3104 291.8040 15.08845160 99959,6917.865,95.437,540.72,538.739,0.0
52676.0,STARLINK-4006,PAYLOAD,2024-03-07 14:53:47,15.08817887,0.0001035,53.216,200.5042,55.2531,304.8559,0.00031898,4.789e-05,0.0,0 STARLINK-4006,1 52676U 22053W   24067.62068664  .00004789  00000-0  31898-3 0  9995,2 52676  53.2160 200.5042 0001035  55.2531 304.8559 15.08817887100523,6917.948,95.439,540.529,539.097,0.0
52676.0,STARLINK-4006,PAYLOAD,2024-03-08 14:44:33,15.08850502,0.0001438,53.2172,196.0437,73.6979,286.4171,2.7249e-05,1.46e-06,0.0,0 STARLINK-4006,1 52676U 22053W   24068.61427334  .00000146  00000-0  27249-4 0  9997,2 52676  53.2172 196.0437 0001438  73.6979 286.4171 15.08850502100672,6917.848,95.437,540.708,538.719,0.0
52676.0,STARLINK-4006,PAYLOAD,2024-03-09 11:24:34,15.08837478,0.000151,53.218,192.1757,93.9521,266.1644,5.4219e-05,5.75e-06,0.0,0 STARLINK-4006,1 52676U 22053W   24069.47539798  .00000575  00000-0  54219-4 0  9993,2 52676  53.2180 192.1757 0001510  93.9521 266.1644 15.08837478100376,6917.888,95.438,540.798,538.708,0.0
52676.0,STARLINK-4006,PAYLOAD,2024-03-09 14:35:20,15.08839467,9.51e-05,53.2175,191.5821,84.0209,276.0892,8.0349e-05,9.91e-06,0.0,0 STARLINK-4006,1 52676U 22053W   24069.60787549  .00000991  00000-0  80349-4 0  9992,2 52676  53.2175 191.5821 0000951  84.0209 276.0892 15.08839467100822,6917.882,95.438,540.405,539.089,0.0
52676.0,STARLINK-4006,PAYLOAD,2024-03-09 17:46:06,15.08846184,0.0001431,53.2168,190.9874,86.451,273.6646,2.6525e-05,1.34e-06,0.0,0 STARLINK-4006,1 52676U 22053W   24069.74035332  .00000134  00000-0  26525-4 0  9998,2 52676  53.2168 190.9874 0001431  86.4510 273.6646 15.08846184100846,6917.861,95.437,540.716,538.737,0.0
